ONEWEB-0599             
1 55155U 23004R   26032.93445165  .00000049  00000+0  92622-4 0  9997
2 55155  87.9093  32.7396 0001674  91.5367 268.5957 13.17647866149676
ONEWEB-0614             
1 55156U 23004S   26032.95730539  .00000391  00000+0  10666-2 0  9998
2 55156  87.8810  47.9920 0002182  87.9060 272.2318 13.11415188148113
ONEWEB-0616             
1 55157U 23004T   26032.97663194  .00000007  00000+0 -16088-4 0  9994
2 55157  87.9101  32.7278 0000976  70.2007 289.9230 13.17651561149898
ONEWEB-0617             
1 55158U 23004U   26032.94543649  .00000474  00000+0  13015-2 0  9996
2 55158  87.8818  47.9753 0002206  94.7402 265.3978 13.11417506148133
ONEWEB-0618             
1 55159U 23004V   26032.95025521  .00004643  00000+0  27153-3 0  9993
2 55159  86.9042 232.4794 0015101  78.6440 281.6494 15.11525293161820
ONEWEB-0619             
1 55160U 23004W   26032.93277544  .00000004  00000+0 -24102-4 0  9997
2 55160  87.9102  32.7100 0001956  75.3127 284.8221 13.17650152149782
ONEWEB-0620             
1 55161U 23004X   26032.94035156  .00000352  00000+0  95853-3 0  9995
2 55161  87.8813  47.9946 0001995  99.2269 260.9085 13.11417325148107
ONEWEB-0621             
1 55162U 23004Y   26032.96747236  .00000074  00000+0  17334-3 0  9996
2 55162  87.8823  47.9651 0002022  86.7279 273.4080 13.11414696148085
ONEWEB-0622             
1 55163U 23004Z   26032.97254886 -.00000203  00000+0 -60873-3 0  9994
2 55163  87.8815  47.9686 0002613  93.8791 266.2636 13.11413956148073
ONEWEB-0623             
1 55164U 23004AA  26032.92770545 -.00000007  00000+0 -51293-4 0  9994
2 55164  87.9093  32.7562 0002560  79.8503 280.2917 13.17650919149778
ONEWEB-0624             
1 55165U 23004AB  26032.92364184  .00000107  00000+0  26155-3 0  9990
2 55165  87.8939  17.4607 0002116  84.2798 275.8572 13.12924328150323
ONEWEB-0625             
1 55166U 23004AC  26032.91759368  .00000028  00000+0  38256-4 0  9990
2 55166  87.9091  32.7522 0001669  85.3247 274.8075 13.17649938149762
ONEWEB-0626             
1 55167U 23004AD  26032.98339690  .00000058  00000+0  11545-3 0  9994
2 55167  87.9092  32.7394 0001830 103.7586 256.3749 13.17650456149773
ONEWEB-0627             
1 55168U 23004AE  26032.97157822  .00000005  00000+0 -21234-4 0  9999
2 55168  87.9090  32.7417 0002386  84.9589 275.1815 13.17647647149779
ONEWEB-0628             
1 55169U 23004AF  26032.93159433  .00000358  00000+0  95879-3 0  9991
2 55169  87.8947  17.4993 0002430  73.8654 286.2742 13.12443605150293
ONEWEB-0629             
1 55170U 23004AG  26032.94711252  .00000044  00000+0  80370-4 0  9990
2 55170  87.9092  32.7443 0001888  77.2254 282.9088 13.17648244149775
ONEWEB-0631             
1 55171U 23004AH  26032.96510181 -.00000015  00000+0 -70441-4 0  9999
2 55171  87.9214   2.2778 0002125  97.0738 263.0636 13.18686531151850
