[{"OBJECT_NAME":"ONEWEB-0599","OBJECT_ID":"2023-004R","EPOCH":"2026-02-01T22:25:36.622560","MEAN_MOTION":13.17647866,"ECCENTRICITY":0.00016745,"INCLINATION":87.9093,"RA_OF_ASC_NODE":32.7396,"ARG_OF_PERICENTER":91.5367,"MEAN_ANOMALY":268.5957,"EPHEMERIS_TYPE":0,"CLASSIFICATION_TYPE":"U","NORAD_CAT_ID":55155,"ELEMENT_SET_NO":999,"REV_AT_EPOCH":14967,"BSTAR":9.2621526e-5,"MEAN_MOTION_DOT":4.9e-7,"MEAN_MOTION_DDOT":0},{"OBJECT_NAME":"ONEWEB-0614","OBJECT_ID":"2023-004S","EPOCH":"2026-02-01T22:58:31.185696","MEAN_MOTION":13.11415188,"ECCENTRICITY":0.00021822,"INCLINATION":87.881,"RA_OF_ASC_NODE":47.992,"ARG_OF_PERICENTER":87.906,"MEAN_ANOMALY":272.2318,"EPHEMERIS_TYPE":0,"CLASSIFICATION_TYPE":"U","NORAD_CAT_ID":55156,"ELEMENT_SET_NO":999,"REV_AT_EPOCH":14811,"BSTAR":0.0010666295,"MEAN_MOTION_DOT":3.91e-6,"MEAN_MOTION_DDOT":0},{"OBJECT_NAME":"ONEWEB-0616","OBJECT_ID":"2023-004T","EPOCH":"2026-02-01T23:26:20.999616","MEAN_MOTION":13.17651561,"ECCENTRICITY":9.76e-5,"INCLINATION":87.9101,"RA_OF_ASC_NODE":32.7278,"ARG_OF_PERICENTER":70.2007,"MEAN_ANOMALY":289.923,"EPHEMERIS_TYPE":0,"CLASSIFICATION_TYPE":"U","NORAD_CAT_ID":55157,"ELEMENT_SET_NO":999,"REV_AT_EPOCH":14989,"BSTAR":-1.6087894e-5,"MEAN_MOTION_DOT":7.0e-8,"MEAN_MOTION_DDOT":0},{"OBJECT_NAME":"ONEWEB-0617","OBJECT_ID":"2023-004U","EPOCH":"2026-02-01T22:41:25.712736","MEAN_MOTION":13.11417506,"ECCENTRICITY":0.00022061,"INCLINATION":87.8818,"RA_OF_ASC_NODE":47.9753,"ARG_OF_PERICENTER":94.7402,"MEAN_ANOMALY":265.3978,"EPHEMERIS_TYPE":0,"CLASSIFICATION_TYPE":"U","NORAD_CAT_ID":55158,"ELEMENT_SET_NO":999,"REV_AT_EPOCH":14813,"BSTAR":0.0013015169,"MEAN_MOTION_DOT":4.74e-6,"MEAN_MOTION_DDOT":0},{"OBJECT_NAME":"ONEWEB-0618","OBJECT_ID":"2023-004V","EPOCH":"2026-02-01T22:48:22.050144","MEAN_MOTION":15.11525293,"ECCENTRICITY":0.0015101,"INCLINATION":86.9042,"RA_OF_ASC_NODE":232.4794,"ARG_OF_PERICENTER":78.644,"MEAN_ANOMALY":281.6494,"EPHEMERIS_TYPE":0,"CLASSIFICATION_TYPE":"U","NORAD_CAT_ID":55159,"ELEMENT_SET_NO":999,"REV_AT_EPOCH":16182,"BSTAR":0.00027152578,"MEAN_MOTION_DOT":4.643e-5,"MEAN_MOTION_DDOT":0},{"OBJECT_NAME":"ONEWEB-0619","OBJECT_ID":"2023-004W","EPOCH":"2026-02-01T22:23:11.798016","MEAN_MOTION":13.17650152,"ECCENTRICITY":0.00019569,"INCLINATION":87.9102,"RA_OF_ASC_NODE":32.71,"ARG_OF_PERICENTER":75.3127,"MEAN_ANOMALY":284.8221,"EPHEMERIS_TYPE":0,"CLASSIFICATION_TYPE":"U","NORAD_CAT_ID":55160,"ELEMENT_SET_NO":999,"REV_AT_EPOCH":14978,"BSTAR":-2.4101694e-5,"MEAN_MOTION_DOT":4.0e-8,"MEAN_MOTION_DDOT":0},{"OBJECT_NAME":"ONEWEB-0620","OBJECT_ID":"2023-004X","EPOCH":"2026-02-01T22:34:06.374784","MEAN_MOTION":13.11417325,"ECCENTRICITY":0.00019957,"INCLINATION":87.8813,"RA_OF_ASC_NODE":47.9946,"ARG_OF_PERICENTER":99.2269,"MEAN_ANOMALY":260.9085,"EPHEMERIS_TYPE":0,"CLASSIFICATION_TYPE":"U","NORAD_CAT_ID":55161,"ELEMENT_SET_NO":999,"REV_AT_EPOCH":14810,"BSTAR":0.00095852793,"MEAN_MOTION_DOT":3.52e-6,"MEAN_MOTION_DDOT":0},{"OBJECT_NAME":"ONEWEB-0621","OBJECT_ID":"2023-004Y","EPOCH":"2026-02-01T23:13:09.611904","MEAN_MOTION":13.11414696,"ECCENTRICITY":0.00020222,"INCLINATION":87.8823,"RA_OF_ASC_NODE":47.9651,"ARG_OF_PERICENTER":86.7279,"MEAN_ANOMALY":273.408,"EPHEMERIS_TYPE":0,"CLASSIFICATION_TYPE":"U","NORAD_CAT_ID":55162,"ELEMENT_SET_NO":999,"REV_AT_EPOCH":14808,"BSTAR":0.00017334195,"MEAN_MOTION_DOT":7.4e-7,"MEAN_MOTION_DDOT":0},{"OBJECT_NAME":"ONEWEB-0622","OBJECT_ID":"2023-004Z","EPOCH":"2026-02-01T23:20:28.221504","MEAN_MOTION":13.11413956,"ECCENTRICITY":0.00026133,"INCLINATION":87.8815,"RA_OF_ASC_NODE":47.9686,"ARG_OF_PERICENTER":93.8791,"MEAN_ANOMALY":266.2636,"EPHEMERIS_TYPE":0,"CLASSIFICATION_TYPE":"U","NORAD_CAT_ID":55163,"ELEMENT_SET_NO":999,"REV_AT_EPOCH":14807,"BSTAR":-0.0006087315,"MEAN_MOTION_DOT":-2.03e-6,"MEAN_MOTION_DDOT":0},{"OBJECT_NAME":"ONEWEB-0623","OBJECT_ID":"2023-004AA","EPOCH":"2026-02-01T22:15:53.750880","MEAN_MOTION":13.17650919,"ECCENTRICITY":0.00025608,"INCLINATION":87.9093,"RA_OF_ASC_NODE":32.7562,"ARG_OF_PERICENTER":79.8503,"MEAN_ANOMALY":280.2917,"EPHEMERIS_TYPE":0,"CLASSIFICATION_TYPE":"U","NORAD_CAT_ID":55164,"ELEMENT_SET_NO":999,"REV_AT_EPOCH":14977,"BSTAR":-5.1292929e-5,"MEAN_MOTION_DOT":-7.0e-8,"MEAN_MOTION_DDOT":0},{"OBJECT_NAME":"ONEWEB-0624","OBJECT_ID":"2023-004AB","EPOCH":"2026-02-01T22:10:02.654976","MEAN_MOTION":13.12924328,"ECCENTRICITY":0.00021162,"INCLINATION":87.8939,"RA_OF_ASC_NODE":17.4607,"ARG_OF_PERICENTER":84.2798,"MEAN_ANOMALY":275.8572,"EPHEMERIS_TYPE":0,"CLASSIFICATION_TYPE":"U","NORAD_CAT_ID":55165,"ELEMENT_SET_NO":999,"REV_AT_EPOCH":15032,"BSTAR":0.00026155484,"MEAN_MOTION_DOT":1.07e-6,"MEAN_MOTION_DDOT":0},{"OBJECT_NAME":"ONEWEB-0625","OBJECT_ID":"2023-004AC","EPOCH":"2026-02-01T22:01:20.093952","MEAN_MOTION":13.17649938,"ECCENTRICITY":0.00016697,"INCLINATION":87.9091,"RA_OF_ASC_NODE":32.7522,"ARG_OF_PERICENTER":85.3247,"MEAN_ANOMALY":274.8075,"EPHEMERIS_TYPE":0,"CLASSIFICATION_TYPE":"U","NORAD_CAT_ID":55166,"ELEMENT_SET_NO":999,"REV_AT_EPOCH":14976,"BSTAR":3.8256359e-5,"MEAN_MOTION_DOT":2.8e-7,"MEAN_MOTION_DDOT":0},{"OBJECT_NAME":"ONEWEB-0626","OBJECT_ID":"2023-004AD","EPOCH":"2026-02-01T23:36:05.492160","MEAN_MOTION":13.17650456,"ECCENTRICITY":0.00018309,"INCLINATION":87.9092,"RA_OF_ASC_NODE":32.7394,"ARG_OF_PERICENTER":103.7586,"MEAN_ANOMALY":256.3749,"EPHEMERIS_TYPE":0,"CLASSIFICATION_TYPE":"U","NORAD_CAT_ID":55167,"ELEMENT_SET_NO":999,"REV_AT_EPOCH":14977,"BSTAR":0.0001154459,"MEAN_MOTION_DOT":5.8e-7,"MEAN_MOTION_DDOT":0},{"OBJECT_NAME":"ONEWEB-0627","OBJECT_ID":"2023-004AE","EPOCH":"2026-02-01T23:19:04.358208","MEAN_MOTION":13.17647647,"ECCENTRICITY":0.00023865,"INCLINATION":87.909,"RA_OF_ASC_NODE":32.7417,"ARG_OF_PERICENTER":84.9589,"MEAN_ANOMALY":275.1815,"EPHEMERIS_TYPE":0,"CLASSIFICATION_TYPE":"U","NORAD_CAT_ID":55168,"ELEMENT_SET_NO":999,"REV_AT_EPOCH":14977,"BSTAR":-2.1234054e-5,"MEAN_MOTION_DOT":5.0e-8,"MEAN_MOTION_DDOT":0},{"OBJECT_NAME":"ONEWEB-0628","OBJECT_ID":"2023-004AF","EPOCH":"2026-02-01T22:21:29.750112","MEAN_MOTION":13.12443605,"ECCENTRICITY":0.00024307,"INCLINATION":87.8947,"RA_OF_ASC_NODE":17.4993,"ARG_OF_PERICENTER":73.8654,"MEAN_ANOMALY":286.2742,"EPHEMERIS_TYPE":0,"CLASSIFICATION_TYPE":"U","NORAD_CAT_ID":55169,"ELEMENT_SET_NO":999,"REV_AT_EPOCH":15029,"BSTAR":0.00095878942,"MEAN_MOTION_DOT":3.58e-6,"MEAN_MOTION_DDOT":0},{"OBJECT_NAME":"ONEWEB-0629","OBJECT_ID":"2023-004AG","EPOCH":"2026-02-01T22:43:50.521728","MEAN_MOTION":13.17648244,"ECCENTRICITY":0.0001888,"INCLINATION":87.9092,"RA_OF_ASC_NODE":32.7443,"ARG_OF_PERICENTER":77.2254,"MEAN_ANOMALY":282.9088,"EPHEMERIS_TYPE":0,"CLASSIFICATION_TYPE":"U","NORAD_CAT_ID":55170,"ELEMENT_SET_NO":999,"REV_AT_EPOCH":14977,"BSTAR":8.0369727e-5,"MEAN_MOTION_DOT":4.4e-7,"MEAN_MOTION_DDOT":0},{"OBJECT_NAME":"ONEWEB-0631","OBJECT_ID":"2023-004AH","EPOCH":"2026-02-01T23:09:44.796384","MEAN_MOTION":13.18686531,"ECCENTRICITY":0.00021251,"INCLINATION":87.9214,"RA_OF_ASC_NODE":2.2778,"ARG_OF_PERICENTER":97.0738,"MEAN_ANOMALY":263.0636,"EPHEMERIS_TYPE":0,"CLASSIFICATION_TYPE":"U","NORAD_CAT_ID":55171,"ELEMENT_SET_NO":999,"REV_AT_EPOCH":15185,"BSTAR":-7.0440789e-5,"MEAN_MOTION_DOT":-1.5e-7,"MEAN_MOTION_DDOT":0}]
